     2.11           GLONASS NAV DATA                        RINEX VERSION / TYPE
cnvtToRINEX 2.17.0  convertToRINEX OPR  16-Aug-13 19:19 UTC PGM / RUN BY / DATE 
----------------------------------------------------------- COMMENT             
  2013     8    16    0.186730176210D-06                    CORR TO SYSTEM TIME 
    16                                                      LEAP SECONDS        
                                                            END OF HEADER       
 1 13 08 16 14 45  0.0-0.170625746250D-03 0.000000000000D+00 0.529500000000D+05
   -0.194596572266D+05-0.122191524506D+01 0.000000000000D+00 0.000000000000D+00
   -0.115669145508D+05-0.105623531342D+01-0.279396772385D-08 0.100000000000D+01
    0.117799077148D+05-0.305661296844D+01 0.000000000000D+00 0.000000000000D+00
 9 13 08 16 14 45  0.0-0.498071312904D-05 0.909494701773D-12 0.529500000000D+05
    0.232419897461D+05 0.757918357849D+00-0.931322574615D-09 0.000000000000D+00
   -0.871372656250D+04-0.392534255981D+00-0.186264514923D-08-0.200000000000D+01
    0.604749072266D+04-0.345561504364D+01 0.000000000000D+00 0.000000000000D+00
10 13 08 16 14 45  0.0-0.358643010259D-04 0.000000000000D+00 0.529500000000D+05
    0.108035483398D+05 0.259899902344D+01 0.000000000000D+00 0.000000000000D+00
   -0.119098808594D+05-0.802395820618D+00-0.372529029846D-08-0.700000000000D+01
    0.197468164063D+05-0.191154098511D+01 0.000000000000D+00 0.000000000000D+00
11 13 08 16 14 45  0.0-0.363904982805D-04 0.000000000000D+00 0.529500000000D+05
   -0.823933496094D+04 0.301046657562D+01 0.000000000000D+00 0.000000000000D+00
   -0.846099316406D+04-0.741095542908D+00-0.372529029846D-08 0.000000000000D+00
    0.225934033203D+05 0.826572418213D+00-0.931322574615D-09 0.000000000000D+00
19 13 08 16 14 45  0.0-0.671595335007D-04-0.909494701773D-12 0.529500000000D+05
    0.112166464844D+05-0.914146423340D+00 0.000000000000D+00 0.000000000000D+00
   -0.263028320313D+03 0.300241184235D+01-0.186264514923D-08 0.300000000000D+01
    0.229053149414D+05 0.481860160828D+00-0.186264514923D-08 0.000000000000D+00
20 13 08 16 14 45  0.0-0.614020973444D-04-0.181898940355D-11 0.529500000000D+05
    0.120883466797D+05-0.698972702026D+00 0.000000000000D+00 0.000000000000D+00
   -0.172551972656D+05 0.184383296967D+01-0.372529029846D-08 0.200000000000D+01
    0.143412133789D+05 0.281303024292D+01 0.000000000000D+00 0.000000000000D+00
21 13 08 16 14 45  0.0-0.947341322899D-05 0.000000000000D+00 0.529500000000D+05
    0.704050488281D+04-0.184567451477D+00 0.000000000000D+00 0.000000000000D+00
   -0.245697255859D+05-0.516738891602D-01-0.279396772385D-08 0.400000000000D+01
    0.281054687500D+01 0.357350063324D+01 0.186264514923D-08 0.000000000000D+00
20 13 08 16 15 15  0.0-0.614067539573D-04-0.181898940355D-11 0.540000000000D+05
    0.109680688477D+05-0.509444236755D+00-0.931322574615D-09 0.000000000000D+00
   -0.132944985352D+05 0.252620315552D+01-0.279396772385D-08 0.200000000000D+01
    0.187833906250D+05 0.209070301056D+01 0.000000000000D+00 0.000000000000D+00
10 13 08 16 15 15  0.0-0.358661636710D-04 0.000000000000D+00 0.540000000000D+05
    0.149003002930D+05 0.192234611511D+01-0.931322574615D-09 0.000000000000D+00
   -0.135397353516D+05-0.969550132751D+00-0.279396772385D-08-0.700000000000D+01
    0.155833896484D+05-0.268439674377D+01 0.000000000000D+00 0.000000000000D+00
21 13 08 16 15 15  0.0-0.947341322899D-05 0.000000000000D+00 0.540000000000D+05
    0.655795507813D+04-0.310122489929D+00-0.931322574615D-09 0.000000000000D+00
   -0.238685981445D+05 0.832365036011D+00-0.372529029846D-08 0.400000000000D+01
    0.635236328125D+04 0.343599319458D+01 0.931322574615D-09 0.000000000000D+00
11 13 08 16 15 15  0.0-0.363895669580D-04 0.000000000000D+00 0.540000000000D+05
   -0.283944042969D+04 0.293812942505D+01 0.000000000000D+00 0.000000000000D+00
   -0.102342568359D+05-0.121612834930D+01-0.372529029846D-08 0.000000000000D+00
    0.231876406250D+05-0.170392036438D+00-0.931322574615D-09 0.000000000000D+00
19 13 08 16 15 15  0.0-0.671613961458D-04-0.909494701773D-12 0.540000000000D+05
    0.996916748047D+04-0.460626602173D+00-0.931322574615D-09 0.000000000000D+00
    0.527551708984D+04 0.310048580170D+01-0.931322574615D-09 0.300000000000D+01
    0.228758828125D+05-0.514355659485D+00-0.279396772385D-08 0.000000000000D+00
 9 13 08 16 15 15  0.0-0.497791916132D-05 0.909494701773D-12 0.540000000000D+05
    0.238164609375D+05-0.113109588623D+00-0.931322574615D-09 0.000000000000D+00
   -0.926134228516D+04-0.174696922302D+00 0.000000000000D+00-0.200000000000D+01
   -0.325320312500D+03-0.357951545715D+01 0.000000000000D+00 0.000000000000D+00
 1 13 08 16 15 15  0.0-0.170624814928D-03 0.000000000000D+00 0.540000000000D+05
   -0.212451538086D+05-0.722330093384D+00 0.000000000000D+00 0.000000000000D+00
   -0.128482617188D+05-0.382199287415D+00-0.279396772385D-08 0.100000000000D+01
    0.589414062500D+04-0.344072532654D+01 0.931322574615D-09 0.000000000000D+00
22 13 08 16 15 15  0.0 0.942200422287D-04 0.000000000000D+00 0.550500000000D+05
   -0.168155224609D+04 0.568532943726D-01 0.000000000000D+00 0.000000000000D+00
   -0.230648906250D+05-0.146402740479D+01-0.186264514923D-08-0.300000000000D+01
   -0.106027978516D+05 0.318884277344D+01 0.279396772385D-08 0.000000000000D+00
21 13 08 16 15 45  0.0-0.947434455156D-05 0.000000000000D+00 0.558000000000D+05
    0.607226269531D+04-0.190197944641D+00-0.931322574615D-09 0.000000000000D+00
   -0.216026264648D+05 0.166758441925D+01-0.372529029846D-08 0.400000000000D+01
    0.122133291016D+05 0.303406620026D+01 0.931322574615D-09 0.000000000000D+00
11 13 08 16 15 45  0.0-0.363886356354D-04 0.000000000000D+00 0.558000000000D+05
    0.216511621094D+04 0.257923126221D+01-0.931322574615D-09 0.000000000000D+00
   -0.127605668945D+05-0.156103801727D+01-0.372529029846D-08 0.000000000000D+00
    0.219886586914D+05-0.115296173096D+01 0.000000000000D+00 0.000000000000D+00
20 13 08 16 15 45  0.0-0.614104792476D-04-0.181898940355D-11 0.558000000000D+05
    0.103638759766D+05-0.138461112976D+00-0.931322574615D-09 0.000000000000D+00
   -0.829835253906D+04 0.298057937622D+01-0.279396772385D-08 0.200000000000D+01
    0.217707744141D+05 0.120717334747D+01-0.931322574615D-09 0.000000000000D+00
10 13 08 16 15 45  0.0-0.358661636710D-04 0.000000000000D+00 0.558000000000D+05
    0.176467124023D+05 0.111748123169D+01-0.186264514923D-08 0.000000000000D+00
   -0.152462602539D+05-0.881552696228D+00-0.186264514923D-08-0.700000000000D+01
    0.102082988281D+05-0.324894905090D+01 0.000000000000D+00 0.000000000000D+00
22 13 08 16 15 45  0.0 0.942209735513D-04 0.000000000000D+00 0.558000000000D+05
   -0.180970605469D+04-0.161635398865D+00-0.931322574615D-09 0.000000000000D+00
   -0.249625849609D+05-0.623988151550D+00-0.279396772385D-08-0.300000000000D+01
   -0.452434765625D+04 0.352080917358D+01 0.279396772385D-08 0.000000000000D+00
12 13 08 16 15 45  0.0-0.694515183568D-04 0.909494701773D-12 0.560700000000D+05
   -0.151767636719D+05 0.249123191833D+01 0.000000000000D+00 0.000000000000D+00
   -0.237045214844D+04-0.127174663544D+01-0.279396772385D-08-0.100000000000D+01
    0.203855678711D+05 0.168828392029D+01-0.931322574615D-09 0.000000000000D+00
21 13 08 16 16 15  0.0-0.947527587414D-05 0.000000000000D+00 0.576000000000D+05
    0.600047265625D+04 0.140459060669D+00-0.186264514923D-08 0.000000000000D+00
   -0.179612680664D+05 0.234364986420D+01-0.279396772385D-08 0.400000000000D+01
    0.171342421875D+05 0.239814281464D+01 0.000000000000D+00 0.000000000000D+00
11 13 08 16 16 15  0.0-0.363867729902D-04 0.909494701773D-12 0.576000000000D+05
    0.631410253906D+04 0.200191974640D+01-0.186264514923D-08 0.000000000000D+00
   -0.157227993164D+05-0.168848991394D+01-0.279396772385D-08 0.000000000000D+00
    0.190912182617D+05-0.204537868500D+01 0.000000000000D+00 0.000000000000D+00
20 13 08 16 16 15  0.0-0.614142045379D-04-0.181898940355D-11 0.576000000000D+05
    0.105241738281D+05 0.322909355164D+00-0.931322574615D-09 0.000000000000D+00
   -0.273996972656D+04 0.314385509491D+01-0.186264514923D-08 0.200000000000D+01
    0.230735791016D+05 0.231147766113D+00-0.186264514923D-08 0.000000000000D+00
10 13 08 16 16 15  0.0-0.358652323484D-04 0.000000000000D+00 0.576000000000D+05
    0.189174135742D+05 0.302839279175D+00-0.186264514923D-08 0.000000000000D+00
   -0.165517060547D+05-0.525800704956D+00-0.931322574615D-09-0.700000000000D+01
    0.403915869141D+04-0.356086158752D+01 0.000000000000D+00 0.000000000000D+00
22 13 08 16 16 15  0.0 0.942209735513D-04 0.000000000000D+00 0.576000000000D+05
   -0.211832666016D+04-0.139802932739D+00-0.186264514923D-08 0.000000000000D+00
   -0.252721616211D+05 0.280847549438D+00-0.279396772385D-08-0.300000000000D+01
    0.190697607422D+04 0.357828235626D+01 0.186264514923D-08 0.000000000000D+00
12 13 08 16 16 15  0.0-0.694487243891D-04 0.909494701773D-12 0.576000000000D+05
   -0.106239301758D+05 0.251848125458D+01-0.931322574615D-09 0.000000000000D+00
   -0.515878222656D+04-0.181185054779D+01-0.279396772385D-08-0.100000000000D+01
    0.225980122070D+05 0.753552436829D+00-0.931322574615D-09 0.000000000000D+00
11 13 08 16 16 45  0.0-0.363839790225D-04 0.909494701773D-12 0.594000000000D+05
    0.930042578125D+04 0.130577659607D+01-0.186264514923D-08 0.000000000000D+00
   -0.186765209961D+05-0.154643917084D+01-0.186264514923D-08 0.000000000000D+00
    0.147207392578D+05-0.277914333344D+01 0.000000000000D+00 0.000000000000D+00
21 13 08 16 16 45  0.0-0.947620719671D-05 0.000000000000D+00 0.594000000000D+05
    0.666079980469D+04 0.608357429504D+00-0.186264514923D-08 0.000000000000D+00
   -0.133138076172D+05 0.277378463745D+01-0.279396772385D-08 0.400000000000D+01
    0.207349584961D+05 0.157656478882D+01-0.931322574615D-09 0.000000000000D+00
